ORBVIEW 2 (SEASTAR)     
1 24883U 97037A   13022.40366041  .00000182  00000-0  82737-4 0  9412
2 24883  98.4367 140.9175 0002387 163.9315 196.1945 14.32577212821784
METEOSAT-7              
1 24932U 97049B   13022.62062102  .00000057  00000-0  10000-3 0  4650
2 24932   8.1438  53.8397 0002358 199.3142 149.8012  1.00269576 56370
NOAA 15                 
1 25338U 98030A   13022.03840765  .00000094  00000-0  58899-4 0  5848
2 25338  98.7110  13.1312 0010469 188.4565 171.6422 14.25171281764021
NOAA 16                 
1 26536U 00055A   13022.22876645 -.00000081  00000-0 -18983-4 0   636
2 26536  99.0653  73.4056 0010452 182.9982 177.1120 14.12830957635960
GOES 12                 
1 26871U 01031A   13022.32850980 -.00000286  00000-0  10000-3 0  9038
2 26871   2.7397  70.7498 0002837 258.1992 210.6083  1.00256882 42193
FENGYUN 1D              
1 27431U 02024B   13023.05233843 -.00000086  00000-0 -24567-4 0  8973
2 27431  98.7967 350.2745 0014690 291.3276  68.6324 14.09384048550157
NOAA 17                 
1 27453U 02032A   13022.45459043  .00000139  00000-0  77540-4 0  9967
2 27453  98.3210  44.2161 0010970 230.3037 129.7188 14.24533753549976
METEOSAT-8 (MSG-1)      
1 27509U 02040B   13022.12161980  .00000059  00000-0  10000-3 0  2109
2 27509   1.8214  62.0242 0000679 155.1098 317.5396  1.00266543 38189
KALPANA-1 (METSAT 1)    
1 27525U 02043A   13020.11675435 -.00000082  00000-0  10000-3 0  6169
2 27525   3.3355  68.2411 0006191 208.1990 319.1522  1.00271155 37960
INSAT-3A                
1 27714U 03013A   13022.25687083 -.00000258  00000-0  10000-3 0  4989
2 27714   0.0130  92.2577 0005970 197.0816  18.3765  1.00272306 35887
FENGYUN 2C              
1 28451U 04042A   13022.71546708 -.00000362  00000-0  10000-3 0  5987
2 28451   4.4386  63.8885 0003121  25.0603  54.3294  1.00275907 30245
HIMAWARI-6 (MTSAT-1R)   
1 28622U 05006A   13022.58036485 -.00000280  00000-0  10000-3 0  8093
2 28622   0.0174 204.2871 0001034  77.8002 188.9361  1.00271074 28941
NOAA 18                 
1 28654U 05018A   13022.35371895 -.00000016  00000-0  16583-4 0  4774
2 28654  99.0778 348.6260 0013589 258.4372 101.5276 14.11762224395484
METEOSAT-9 (MSG-2)      
1 28912U 05049B   13022.26882936  .00000039  00000-0  10000-3 0  3880
2 28912   0.3769   2.2255 0002325 115.9957 102.9008  1.00411920 26033
MTSAT-2                 
1 28937U 06004A   13022.44275904 -.00000243  00000-0  10000-3 0  3237
2 28937   0.0384 266.1138 0003297  49.6480 110.5784  1.00270052 25421
FORMOSAT-3 FM6          
1 29047U 06011A   13022.55845191  .00000478  00000-0  20792-3 0    90
2 29047  71.9772 223.2361 0050387  40.2348 320.2502 14.27597487355405
FORMOSAT-3 FM1          
1 29048U 06011B   13021.80007053  .00000393  00000-0  17471-3 0   888
2 29048  71.9683 138.7073 0044895 352.5361   7.5075 14.27598527357776
FORMOSAT-3 FM5          
1 29049U 06011C   13022.71722209  .00000365  00000-0  16364-3 0   280
2 29049  72.0212 293.2498 0033712  42.9833 317.3915 14.27613946353689
FORMOSAT-3 FM3          
1 29050U 06011D   13023.10693719  .00001139  00000-0  26646-3 0  3556
2 29050  72.0181 348.9390 0053854 190.7630 169.2362 14.55656532362590
FORMOSAT-3 FM4          
1 29051U 06011E   13022.96102020  .00000376  00000-0  16522-3 0   832
2 29051  72.0050 199.5398 0070435 275.3113  83.9963 14.27617119356302
FORMOSAT-3 FM2          
1 29052U 06011F   13023.12605667  .00000364  00000-0  16273-3 0  1041
2 29052  72.0354 265.4166 0040277   8.1686 352.0083 14.27669427354630
GOES 13                 
1 29155U 06018A   13021.33207272 -.00000251  00000-0  10000-3 0  3874
2 29155   0.3354  93.4893 0001147 335.7882  96.4214  1.00274254 24438
METOP-A                 
1 29499U 06044A   13022.24524233 -.00000066  00000-0 -10279-4 0  9504
2 29499  98.6714  84.0550 0001838 108.3484 251.7894 14.21503277324849
FENGYUN 2D              
1 29640U 06053A   13021.88968852 -.00000200  00000-0  10000-3 0  5944
2 29640   1.2891  72.7734 0002628 315.3830 140.3171  1.00263079 22486
FENGYUN 3A              
1 32958U 08026A   13023.18074784  .00000044  00000-0  41437-4 0  6157
2 32958  98.6250  92.3026 0008867 249.0343 110.9878 14.19324327241495
NOAA 19                 
1 33591U 09005A   13022.41096285  .00000039  00000-0  45949-4 0  6622
2 33591  98.8875 325.7356 0014725 119.9074 240.3573 14.11448070203930
GOES 14                 
1 35491U 09033A   13022.50464571 -.00000106  00000-0  10000-3 0  8022
2 35491   0.0822 258.3102 0000877 122.6717 182.3362  1.00184180 13119
METEOR-M 1              
1 35865U 09049A   13023.12477268 -.00000028  00000-0  68739-5 0  1592
2 35865  98.6241  78.9693 0002918 120.0361 240.1106 14.21878857173853
GOES 15                 
1 36411U 10008A   13022.38753719  .00000086  00000-0  10000-3 0  4099
2 36411   0.1184 253.4109 0002993  43.2205 190.0158  1.00284938 10611
COMS 1                  
1 36744U 10032A   13022.54674314 -.00000344  00000-0  10000-3 0  5129
2 36744   0.0253  68.1061 0000857 213.1276 165.8315  1.00270753  9586
FENGYUN 3B              
1 37214U 10059A   13023.20402172  .00000099  00000-0  68359-4 0  4515
2 37214  98.7865 329.0395 0001852 109.3079 250.8298 14.19310292114998
ELEKTRO-L 1 (GOMS 2)    
1 37344U 11001A   13021.88555133 -.00000097  00000-0  10000-3 0  5255
2 37344   0.0725 294.4524 0001672 297.2601 284.4787  1.00271655  7408
SUOMI NPP               
1 37849U 11061A   13022.72837055  .00000147  00000-0  90360-4 0  4006
2 37849  98.7372 323.0370 0001621 100.4540 259.6817 14.19526816 64181
FENGYUN 2F              
1 38049U 12002A   13021.93075939 -.00000355  00000-0  10000-3 0  2767
2 38049   1.5867 277.6604 0005288 241.7368  48.9456  1.00281393  3814
METOP-B                 
1 38771U 12049A   13022.07160914  .00000014  00000-0  26633-4 0  1180
2 38771  98.7230  84.3137 0001456 227.7985 132.3101 14.21478950 17953
